{
  "type": "FeatureCollection",
  "features": [
    {
      "type": "Feature",
      "properties": {
        "norad_id": 38833,
        "name": "GPS BIIF-3  (PRN 24)",
        "group": "gps-ops",
        "lat": 50.19869202881693,
        "lon": -91.4557794128806,
        "alt_km": 19831.134456862277,
        "timestamp": "2025-12-16T23:36:36.455208+00:00",
        "meta_object_name": "GPS BIIF-3  (PRN 24)",
        "meta_object_id": "2012-053A",
        "meta_epoch": "2025-12-15T20:13:20.824032",
        "meta_mean_motion": 2.00565066,
        "meta_eccentricity": 0.01759247,
        "meta_inclination": 53.5583,
        "meta_ra_of_asc_node": 151.1115,
        "meta_arg_of_pericenter": 64.0399,
        "meta_mean_anomaly": 297.7616,
        "meta_ephemeris_type": 0,
        "meta_classification_type": "U",
        "meta_norad_cat_id": 38833,
        "meta_element_set_no": 999,
        "meta_rev_at_epoch": 9576,
        "meta_bstar": 0,
        "meta_mean_motion_dot": 8e-07,
        "meta_mean_motion_ddot": 0,
        "tle_line1": "1 38833U 12053A   25349.84260213  .00000080  00000+0  00000+0 0  9991",
        "tle_line2": "2 38833  53.5583 151.1115 0175924  64.0399 297.7616  2.00565066 95765"
      },
      "geometry": {
        "type": "Point",
        "coordinates": [
          -91.4557794128806,
          50.19869202881693
        ]
      }
    },
    {
      "type": "Feature",
      "properties": {
        "norad_id": 39166,
        "name": "GPS BIIF-4  (PRN 27)",
        "group": "gps-ops",
        "lat": -19.42083354714044,
        "lon": 110.85178691900589,
        "alt_km": 20516.726911343398,
        "timestamp": "2025-12-16T23:36:36.455220+00:00",
        "meta_object_name": "GPS BIIF-4  (PRN 27)",
        "meta_object_id": "2013-023A",
        "meta_epoch": "2025-12-15T04:59:33.811872",
        "meta_mean_motion": 2.00564736,
        "meta_eccentricity": 0.01378529,
        "meta_inclination": 54.65,
        "meta_ra_of_asc_node": 276.4679,
        "meta_arg_of_pericenter": 48.4851,
        "meta_mean_anomaly": 312.7012,
        "meta_ephemeris_type": 0,
        "meta_classification_type": "U",
        "meta_norad_cat_id": 39166,
        "meta_element_set_no": 999,
        "meta_rev_at_epoch": 9219,
        "meta_bstar": 0,
        "meta_mean_motion_dot": -6.8e-07,
        "meta_mean_motion_ddot": 0,
        "tle_line1": "1 39166U 13023A   25349.20803023 -.00000068  00000+0  00000+0 0  9998",
        "tle_line2": "2 39166  54.6500 276.4679 0137852  48.4851 312.7012  2.00564736 92194"
      },
      "geometry": {
        "type": "Point",
        "coordinates": [
          110.85178691900589,
          -19.42083354714044
        ]
      }
    },
    {
      "type": "Feature",
      "properties": {
        "norad_id": 39533,
        "name": "GPS BIIF-5  (PRN 30)",
        "group": "gps-ops",
        "lat": -20.461496771939004,
        "lon": -7.291478615687858,
        "alt_km": 19987.076980069258,
        "timestamp": "2025-12-16T23:36:36.455232+00:00",
        "meta_object_name": "GPS BIIF-5  (PRN 30)",
        "meta_object_id": "2014-008A",
        "meta_epoch": "2025-12-16T04:46:33.160224",
        "meta_mean_motion": 2.00574644,
        "meta_eccentricity": 0.00793151,
        "meta_inclination": 53.6318,
        "meta_ra_of_asc_node": 156.7835,
        "meta_arg_of_pericenter": 226.5644,
        "meta_mean_anomaly": 132.7818,
        "meta_ephemeris_type": 0,
        "meta_classification_type": "U",
        "meta_norad_cat_id": 39533,
        "meta_element_set_no": 999,
        "meta_rev_at_epoch": 8601,
        "meta_bstar": 0,
        "meta_mean_motion_dot": 8.7e-07,
        "meta_mean_motion_ddot": 0,
        "tle_line1": "1 39533U 14008A   25350.19899491  .00000087  00000+0  00000+0 0  9994",
        "tle_line2": "2 39533  53.6318 156.7835 0079315 226.5644 132.7818  2.00574644 86017"
      },
      "geometry": {
        "type": "Point",
        "coordinates": [
          -7.291478615687858,
          -20.461496771939004
        ]
      }
    },
    {
      "type": "Feature",
      "properties": {
        "norad_id": 39741,
        "name": "GPS BIIF-6  (PRN 06)",
        "group": "gps-ops",
        "lat": 1.5676312473126268,
        "lon": -20.36107320196773,
        "alt_km": 20106.244621385486,
        "timestamp": "2025-12-16T23:36:36.455243+00:00",
        "meta_object_name": "GPS BIIF-6  (PRN 06)",
        "meta_object_id": "2014-026A",
        "meta_epoch": "2025-12-15T23:36:56.796480",
        "meta_mean_motion": 2.00561228,
        "meta_eccentricity": 0.00392671,
        "meta_inclination": 56.5823,
        "meta_ra_of_asc_node": 338.6501,
        "meta_arg_of_pericenter": 318.8752,
        "meta_mean_anomaly": 40.8399,
        "meta_ephemeris_type": 0,
        "meta_classification_type": "U",
        "meta_norad_cat_id": 39741,
        "meta_element_set_no": 999,
        "meta_rev_at_epoch": 8486,
        "meta_bstar": 0,
        "meta_mean_motion_dot": -8.7e-07,
        "meta_mean_motion_ddot": 0,
        "tle_line1": "1 39741U 14026A   25349.98399070 -.00000087  00000+0  00000+0 0  9999",
        "tle_line2": "2 39741  56.5823 338.6501 0039267 318.8752  40.8399  2.00561228 84867"
      },
      "geometry": {
        "type": "Point",
        "coordinates": [
          -20.36107320196773,
          1.5676312473126268
        ]
      }
    },
    {
      "type": "Feature",
      "properties": {
        "norad_id": 40105,
        "name": "GPS BIIF-7  (PRN 09)",
        "group": "gps-ops",
        "lat": -45.81924204745408,
        "lon": 50.16817977610675,
        "alt_km": 20273.44236704058,
        "timestamp": "2025-12-16T23:36:36.455269+00:00",
        "meta_object_name": "GPS BIIF-7  (PRN 09)",
        "meta_object_id": "2014-045A",
        "meta_epoch": "2025-12-12T01:59:18.865536",
        "meta_mean_motion": 2.00572516,
        "meta_eccentricity": 0.00326941,
        "meta_inclination": 55.2287,
        "meta_ra_of_asc_node": 95.9251,
        "meta_arg_of_pericenter": 119.8618,
        "meta_mean_anomaly": 240.4523,
        "meta_ephemeris_type": 0,
        "meta_classification_type": "U",
        "meta_norad_cat_id": 40105,
        "meta_element_set_no": 999,
        "meta_rev_at_epoch": 8232,
        "meta_bstar": 0,
        "meta_mean_motion_dot": -9e-08,
        "meta_mean_motion_ddot": 0,
        "tle_line1": "1 40105U 14045A   25346.08285724 -.00000009  00000+0  00000+0 0  9998",
        "tle_line2": "2 40105  55.2287  95.9251 0032694 119.8618 240.4523  2.00572516 82323"
      },
      "geometry": {
        "type": "Point",
        "coordinates": [
          50.16817977610675,
          -45.81924204745408
        ]
      }
    },
    {
      "type": "Feature",
      "properties": {
        "norad_id": 40294,
        "name": "GPS BIIF-8  (PRN 03)",
        "group": "gps-ops",
        "lat": 22.419888625394645,
        "lon": 53.62364207111343,
        "alt_km": 20058.771357811136,
        "timestamp": "2025-12-16T23:36:36.455294+00:00",
        "meta_object_name": "GPS BIIF-8  (PRN 03)",
        "meta_object_id": "2014-068A",
        "meta_epoch": "2025-12-15T10:49:04.415520",
        "meta_mean_motion": 2.0056507,
        "meta_eccentricity": 0.00607763,
        "meta_inclination": 56.8599,
        "meta_ra_of_asc_node": 38.0411,
        "meta_arg_of_pericenter": 69.1257,
        "meta_mean_anomaly": 291.5793,
        "meta_ephemeris_type": 0,
        "meta_classification_type": "U",
        "meta_norad_cat_id": 40294,
        "meta_element_set_no": 999,
        "meta_rev_at_epoch": 8152,
        "meta_bstar": 0,
        "meta_mean_motion_dot": -8.8e-07,
        "meta_mean_motion_ddot": 0,
        "tle_line1": "1 40294U 14068A   25349.45074555 -.00000088  00000+0  00000+0 0  9991",
        "tle_line2": "2 40294  56.8599  38.0411 0060776  69.1257 291.5793  2.00565070 81523"
      },
      "geometry": {
        "type": "Point",
        "coordinates": [
          53.62364207111343,
          22.419888625394645
        ]
      }
    },
    {
      "type": "Feature",
      "properties": {
        "norad_id": 40534,
        "name": "GPS BIIF-9  (PRN 26)",
        "group": "gps-ops",
        "lat": -47.62991321853085,
        "lon": 156.59569620635548,
        "alt_km": 20263.099348200358,
        "timestamp": "2025-12-16T23:36:36.455313+00:00",
        "meta_object_name": "GPS BIIF-9  (PRN 26)",
        "meta_object_id": "2015-013A",
        "meta_epoch": "2025-12-15T13:56:13.399296",
        "meta_mean_motion": 2.00562492,
        "meta_eccentricity": 0.01071717,
        "meta_inclination": 53.1973,
        "meta_ra_of_asc_node": 211.7725,
        "meta_arg_of_pericenter": 38.5497,
        "meta_mean_anomaly": 322.2983,
        "meta_ephemeris_type": 0,
        "meta_classification_type": "U",
        "meta_norad_cat_id": 40534,
        "meta_element_set_no": 999,
        "meta_rev_at_epoch": 7814,
        "meta_bstar": 0,
        "meta_mean_motion_dot": 7.3e-07,
        "meta_mean_motion_ddot": 0,
        "tle_line1": "1 40534U 15013A   25349.58071064  .00000073  00000+0  00000+0 0  9998",
        "tle_line2": "2 40534  53.1973 211.7725 0107171  38.5497 322.2983  2.00562492 78143"
      },
      "geometry": {
        "type": "Point",
        "coordinates": [
          156.59569620635548,
          -47.62991321853085
        ]
      }
    }
  ]
}